{"fetched_at":"2026-03-29T16:36:15Z","count":15609,"tles":[{"name":"STARLINK-31234","line1":"1 59043U 24038W   26087.83161467 -.00000650  00000+0 -14107-4 0  9996","line2":"2 59043  43.0025 275.6408 0000896 262.9614  97.1136 15.27577992117619","category":"Starlink"}]}